SL-16 R/B               
1 25400U 98043G   17345.87761429 -.00000003  00000-0  16562-4 0  9997
2 25400  98.5115 288.6031 0010647 131.7113 228.4979 14.25425015 10387
